[{"OBJECT_NAME":"STARLINK-2707","OBJECT_ID":"2021-044AH","EPOCH":"2026-03-09T19:07:21.026496","MEAN_MOTION":15.30195068,"ECCENTRICITY":0.00012602,"INCLINATION":53.1615,"RA_OF_ASC_NODE":103.6099,"ARG_OF_PERICENTER":94.7454,"MEAN_ANOMALY":265.369,"EPHEMERIS_TYPE":0,"CLASSIFICATION_TYPE":"U","NORAD_CAT_ID":48669,"ELEMENT_SET_NO":999,"REV_AT_EPOCH":26397,"BSTAR":8.173191e-6,"MEAN_MOTION_DOT":-1.17e-6,"MEAN_MOTION_DDOT":0},{"OBJECT_NAME":"NUSAT-49 (KLARA DAN VON NEUMANN)","OBJECT_ID":"2024-149AJ","EPOCH":"2026-03-09T19:09:16.004160","MEAN_MOTION":15.30828857,"ECCENTRICITY":0.00011321,"INCLINATION":97.3807,"RA_OF_ASC_NODE":150.738,"ARG_OF_PERICENTER":286.7761,"MEAN_ANOMALY":73.3356,"EPHEMERIS_TYPE":0,"CLASSIFICATION_TYPE":"U","NORAD_CAT_ID":60500,"ELEMENT_SET_NO":999,"REV_AT_EPOCH":8693,"BSTAR":0.00043568345,"MEAN_MOTION_DOT":0.00012912,"MEAN_MOTION_DDOT":0}]
